[{"OBJECT_NAME":"IRIDIUM 169","OBJECT_ID":"2019-002E","EPOCH":"2026-03-09T22:14:17.748384","MEAN_MOTION":14.38612437,"ECCENTRICITY":0.00014131,"INCLINATION":86.4172,"RA_OF_ASC_NODE":66.6873,"ARG_OF_PERICENTER":82.9186,"MEAN_ANOMALY":277.2173,"EPHEMERIS_TYPE":0,"CLASSIFICATION_TYPE":"U","NORAD_CAT_ID":43926,"ELEMENT_SET_NO":999,"REV_AT_EPOCH":37595,"BSTAR":6.3248636e-5,"MEAN_MOTION_DOT":2.13e-6,"MEAN_MOTION_DDOT":0},{"OBJECT_NAME":"OPS 0252","OBJECT_ID":"1983-008A","EPOCH":"2026-03-09T17:05:48.785280","MEAN_MOTION":13.86595094,"ECCENTRICITY":0.06891162,"INCLINATION":63.3075,"RA_OF_ASC_NODE":208.1784,"ARG_OF_PERICENTER":134.6802,"MEAN_ANOMALY":231.2568,"EPHEMERIS_TYPE":0,"CLASSIFICATION_TYPE":"U","NORAD_CAT_ID":13791,"ELEMENT_SET_NO":999,"REV_AT_EPOCH":9249,"BSTAR":0.00087750094,"MEAN_MOTION_DOT":7.26e-5,"MEAN_MOTION_DDOT":0}]
